STARLINK-34409          
1 64485U 25133P   25226.42125777  .00068434  00000+0  17041-2 0  9992
2 64485  53.1599   6.0084 0001138  86.3492 273.7643 15.39645290  9368
STARLINK-34520          
1 64486U 25133Q   25226.42092082  .00048926  00000+0  12253-2 0  9999
2 64486  53.1602   6.0070 0002924  80.9093 279.2243 15.39617810  9364
STARLINK-34477          
1 64487U 25133R   25226.41661110  .00036558  00000+0  91859-3 0  9991
2 64487  53.1614   5.9766 0001429  96.6579 263.4589 15.39651874  9366
STARLINK-34217          
1 64488U 25133S   25226.09170543  .00059443  00000+0  14833-2 0  9995
2 64488  53.1592   7.5061 0000853  70.5158 289.5939 15.39644341  9204
STARLINK-34307          
1 64489U 25133T   25226.41197567  .00045979  00000+0  11492-2 0  9994
2 64489  53.1599   5.9485 0001179  78.5477 281.5660 15.39708257  9343
STARLINK-34505          
1 64490U 25133U   25226.41163374  .00039329  00000+0  98801-3 0  9997
2 64490  53.1601   5.9459 0001167  77.3900 282.7235 15.39624127  9349
STARLINK-34530          
1 64491U 25133V   25226.53715802  .00045290  00000+0  11357-2 0  9994
2 64491  53.1605   5.3069 0001111  73.3712 286.7414 15.39615201  9369
STARLINK-34522          
1 64492U 25133W   25226.53681729  .00019805  00000+0  50381-3 0  9999
2 64492  53.1612   5.3030 0000869  48.1390 311.9689 15.39620730  9387
STARLINK-34462          
1 64493U 25133X   25226.53251212  .00041315  00000+0  10360-2 0  9993
2 64493  53.1608   5.2770 0001342  61.6988 298.4153 15.39657370  9388
STARLINK-34226          
1 64494U 25133Y   25226.53217837  .00061712  00000+0  15378-2 0  9996
2 64494  53.1612   5.2742 0001218  68.0805 292.0329 15.39670044  9214
STARLINK-34364          
1 64495U 25133Z   25226.10001890  .00065709  00000+0  12212-2 0  9994
2 64495  53.1605   6.1262 0001683  10.4172 349.6871 15.48317078  9337
STARLINK-34268          
1 64496U 25133AA  25226.52786880  .00030773  00000+0  77601-3 0  9997
2 64496  53.1619   5.2479 0001162  54.9857 305.1257 15.39627832  9380
STARLINK-34363          
1 64497U 25133AB  25226.39339581  .00048252  00000+0  12074-2 0  9998
2 64497  53.1617   5.8303 0001085  70.3912 289.7210 15.39652050  9363
STARLINK-34427          
1 64498U 25133AC  25226.39305880  .00052864  00000+0  13207-2 0  9997
2 64498  53.1621   5.8273 0001172  95.5665 264.5473 15.39659834  9365
STARLINK-34280          
1 64594U 25137A   25226.38716428  .00023929  00000+0  60598-3 0  9997
2 64594  53.1583 228.2441 0001341  81.5300 278.5857 15.39637502  8858
STARLINK-34517          
1 64595U 25137B   25226.41957086  .00031419  00000+0  79214-3 0  9997
2 64595  53.1583 227.7338 0001185  79.8715 280.2423 15.39622811  8861
STARLINK-34510          
1 64596U 25137C   25226.43876894 -.03573253  00000+0 -11788+0 0  9997
2 64596  53.1584 227.8546 0010887 142.7068 217.4692 15.34918845  8865
