[{"OBJECT_NAME":"STARLINK-34409","OBJECT_ID":"2025-133P","EPOCH":"2025-08-14T10:06:36.671328","MEAN_MOTION":15.3964529,"ECCENTRICITY":0.0001138,"INCLINATION":53.1599,"RA_OF_ASC_NODE":6.0084,"ARG_OF_PERICENTER":86.3492,"MEAN_ANOMALY":273.7643,"EPHEMERIS_TYPE":0,"CLASSIFICATION_TYPE":"U","NORAD_CAT_ID":64485,"ELEMENT_SET_NO":999,"REV_AT_EPOCH":936,"BSTAR":0.0017041,"MEAN_MOTION_DOT":0.00068434,"MEAN_MOTION_DDOT":0},{"OBJECT_NAME":"STARLINK-34520","OBJECT_ID":"2025-133Q","EPOCH":"2025-08-14T10:06:07.558848","MEAN_MOTION":15.3961781,"ECCENTRICITY":0.0002924,"INCLINATION":53.1602,"RA_OF_ASC_NODE":6.007,"ARG_OF_PERICENTER":80.9093,"MEAN_ANOMALY":279.2243,"EPHEMERIS_TYPE":0,"CLASSIFICATION_TYPE":"U","NORAD_CAT_ID":64486,"ELEMENT_SET_NO":999,"REV_AT_EPOCH":936,"BSTAR":0.0012253,"MEAN_MOTION_DOT":0.00048926,"MEAN_MOTION_DDOT":0},{"OBJECT_NAME":"STARLINK-34477","OBJECT_ID":"2025-133R","EPOCH":"2025-08-14T09:59:55.199040","MEAN_MOTION":15.39651874,"ECCENTRICITY":0.0001429,"INCLINATION":53.1614,"RA_OF_ASC_NODE":5.9766,"ARG_OF_PERICENTER":96.6579,"MEAN_ANOMALY":263.4589,"EPHEMERIS_TYPE":0,"CLASSIFICATION_TYPE":"U","NORAD_CAT_ID":64487,"ELEMENT_SET_NO":999,"REV_AT_EPOCH":936,"BSTAR":0.00091859,"MEAN_MOTION_DOT":0.00036558,"MEAN_MOTION_DDOT":0},{"OBJECT_NAME":"STARLINK-34217","OBJECT_ID":"2025-133S","EPOCH":"2025-08-14T02:12:03.349152","MEAN_MOTION":15.39644341,"ECCENTRICITY":8.53e-5,"INCLINATION":53.1592,"RA_OF_ASC_NODE":7.5061,"ARG_OF_PERICENTER":70.5158,"MEAN_ANOMALY":289.5939,"EPHEMERIS_TYPE":0,"CLASSIFICATION_TYPE":"U","NORAD_CAT_ID":64488,"ELEMENT_SET_NO":999,"REV_AT_EPOCH":920,"BSTAR":0.0014833,"MEAN_MOTION_DOT":0.00059443,"MEAN_MOTION_DDOT":0},{"OBJECT_NAME":"STARLINK-34307","OBJECT_ID":"2025-133T","EPOCH":"2025-08-14T09:53:14.697888","MEAN_MOTION":15.39708257,"ECCENTRICITY":0.0001179,"INCLINATION":53.1599,"RA_OF_ASC_NODE":5.9485,"ARG_OF_PERICENTER":78.5477,"MEAN_ANOMALY":281.566,"EPHEMERIS_TYPE":0,"CLASSIFICATION_TYPE":"U","NORAD_CAT_ID":64489,"ELEMENT_SET_NO":999,"REV_AT_EPOCH":934,"BSTAR":0.0011492,"MEAN_MOTION_DOT":0.00045979,"MEAN_MOTION_DDOT":0},{"OBJECT_NAME":"STARLINK-34505","OBJECT_ID":"2025-133U","EPOCH":"2025-08-14T09:52:45.155136","MEAN_MOTION":15.39624127,"ECCENTRICITY":0.0001167,"INCLINATION":53.1601,"RA_OF_ASC_NODE":5.9459,"ARG_OF_PERICENTER":77.39,"MEAN_ANOMALY":282.7235,"EPHEMERIS_TYPE":0,"CLASSIFICATION_TYPE":"U","NORAD_CAT_ID":64490,"ELEMENT_SET_NO":999,"REV_AT_EPOCH":934,"BSTAR":0.00098801,"MEAN_MOTION_DOT":0.00039329,"MEAN_MOTION_DDOT":0},{"OBJECT_NAME":"STARLINK-34530","OBJECT_ID":"2025-133V","EPOCH":"2025-08-14T12:53:30.452928","MEAN_MOTION":15.39615201,"ECCENTRICITY":0.0001111,"INCLINATION":53.1605,"RA_OF_ASC_NODE":5.3069,"ARG_OF_PERICENTER":73.3712,"MEAN_ANOMALY":286.7414,"EPHEMERIS_TYPE":0,"CLASSIFICATION_TYPE":"U","NORAD_CAT_ID":64491,"ELEMENT_SET_NO":999,"REV_AT_EPOCH":936,"BSTAR":0.0011357,"MEAN_MOTION_DOT":0.0004529,"MEAN_MOTION_DDOT":0},{"OBJECT_NAME":"STARLINK-34522","OBJECT_ID":"2025-133W","EPOCH":"2025-08-14T12:53:01.013856","MEAN_MOTION":15.3962073,"ECCENTRICITY":8.69e-5,"INCLINATION":53.1612,"RA_OF_ASC_NODE":5.303,"ARG_OF_PERICENTER":48.139,"MEAN_ANOMALY":311.9689,"EPHEMERIS_TYPE":0,"CLASSIFICATION_TYPE":"U","NORAD_CAT_ID":64492,"ELEMENT_SET_NO":999,"REV_AT_EPOCH":938,"BSTAR":0.00050381,"MEAN_MOTION_DOT":0.00019805,"MEAN_MOTION_DDOT":0},{"OBJECT_NAME":"STARLINK-34462","OBJECT_ID":"2025-133X","EPOCH":"2025-08-14T12:46:49.047168","MEAN_MOTION":15.3965737,"ECCENTRICITY":0.0001342,"INCLINATION":53.1608,"RA_OF_ASC_NODE":5.277,"ARG_OF_PERICENTER":61.6988,"MEAN_ANOMALY":298.4153,"EPHEMERIS_TYPE":0,"CLASSIFICATION_TYPE":"U","NORAD_CAT_ID":64493,"ELEMENT_SET_NO":999,"REV_AT_EPOCH":938,"BSTAR":0.001036,"MEAN_MOTION_DOT":0.00041315,"MEAN_MOTION_DDOT":0},{"OBJECT_NAME":"STARLINK-34226","OBJECT_ID":"2025-133Y","EPOCH":"2025-08-14T12:46:20.211168","MEAN_MOTION":15.39670044,"ECCENTRICITY":0.0001218,"INCLINATION":53.1612,"RA_OF_ASC_NODE":5.2742,"ARG_OF_PERICENTER":68.0805,"MEAN_ANOMALY":292.0329,"EPHEMERIS_TYPE":0,"CLASSIFICATION_TYPE":"U","NORAD_CAT_ID":64494,"ELEMENT_SET_NO":999,"REV_AT_EPOCH":921,"BSTAR":0.0015378,"MEAN_MOTION_DOT":0.00061712,"MEAN_MOTION_DDOT":0},{"OBJECT_NAME":"STARLINK-34364","OBJECT_ID":"2025-133Z","EPOCH":"2025-08-14T02:24:01.632960","MEAN_MOTION":15.48317078,"ECCENTRICITY":0.0001683,"INCLINATION":53.1605,"RA_OF_ASC_NODE":6.1262,"ARG_OF_PERICENTER":10.4172,"MEAN_ANOMALY":349.6871,"EPHEMERIS_TYPE":0,"CLASSIFICATION_TYPE":"U","NORAD_CAT_ID":64495,"ELEMENT_SET_NO":999,"REV_AT_EPOCH":933,"BSTAR":0.0012212,"MEAN_MOTION_DOT":0.00065709,"MEAN_MOTION_DDOT":0},{"OBJECT_NAME":"STARLINK-34268","OBJECT_ID":"2025-133AA","EPOCH":"2025-08-14T12:40:07.864320","MEAN_MOTION":15.39627832,"ECCENTRICITY":0.0001162,"INCLINATION":53.1619,"RA_OF_ASC_NODE":5.2479,"ARG_OF_PERICENTER":54.9857,"MEAN_ANOMALY":305.1257,"EPHEMERIS_TYPE":0,"CLASSIFICATION_TYPE":"U","NORAD_CAT_ID":64496,"ELEMENT_SET_NO":999,"REV_AT_EPOCH":938,"BSTAR":0.00077601,"MEAN_MOTION_DOT":0.00030773,"MEAN_MOTION_DDOT":0},{"OBJECT_NAME":"STARLINK-34363","OBJECT_ID":"2025-133AB","EPOCH":"2025-08-14T09:26:29.397984","MEAN_MOTION":15.3965205,"ECCENTRICITY":0.0001085,"INCLINATION":53.1617,"RA_OF_ASC_NODE":5.8303,"ARG_OF_PERICENTER":70.3912,"MEAN_ANOMALY":289.721,"EPHEMERIS_TYPE":0,"CLASSIFICATION_TYPE":"U","NORAD_CAT_ID":64497,"ELEMENT_SET_NO":999,"REV_AT_EPOCH":936,"BSTAR":0.0012074,"MEAN_MOTION_DOT":0.00048252,"MEAN_MOTION_DDOT":0},{"OBJECT_NAME":"STARLINK-34427","OBJECT_ID":"2025-133AC","EPOCH":"2025-08-14T09:26:00.280320","MEAN_MOTION":15.39659834,"ECCENTRICITY":0.0001172,"INCLINATION":53.1621,"RA_OF_ASC_NODE":5.8273,"ARG_OF_PERICENTER":95.5665,"MEAN_ANOMALY":264.5473,"EPHEMERIS_TYPE":0,"CLASSIFICATION_TYPE":"U","NORAD_CAT_ID":64498,"ELEMENT_SET_NO":999,"REV_AT_EPOCH":936,"BSTAR":0.0013207,"MEAN_MOTION_DOT":0.00052864,"MEAN_MOTION_DDOT":0},{"OBJECT_NAME":"STARLINK-34280","OBJECT_ID":"2025-137A","EPOCH":"2025-08-14T09:17:30.993792","MEAN_MOTION":15.39637502,"ECCENTRICITY":0.0001341,"INCLINATION":53.1583,"RA_OF_ASC_NODE":228.2441,"ARG_OF_PERICENTER":81.53,"MEAN_ANOMALY":278.5857,"EPHEMERIS_TYPE":0,"CLASSIFICATION_TYPE":"U","NORAD_CAT_ID":64594,"ELEMENT_SET_NO":999,"REV_AT_EPOCH":885,"BSTAR":0.00060598,"MEAN_MOTION_DOT":0.00023929,"MEAN_MOTION_DDOT":0},{"OBJECT_NAME":"STARLINK-34517","OBJECT_ID":"2025-137B","EPOCH":"2025-08-14T10:04:10.922304","MEAN_MOTION":15.39622811,"ECCENTRICITY":0.0001185,"INCLINATION":53.1583,"RA_OF_ASC_NODE":227.7338,"ARG_OF_PERICENTER":79.8715,"MEAN_ANOMALY":280.2423,"EPHEMERIS_TYPE":0,"CLASSIFICATION_TYPE":"U","NORAD_CAT_ID":64595,"ELEMENT_SET_NO":999,"REV_AT_EPOCH":886,"BSTAR":0.00079214,"MEAN_MOTION_DOT":0.00031419,"MEAN_MOTION_DDOT":0},{"OBJECT_NAME":"STARLINK-34510","OBJECT_ID":"2025-137C","EPOCH":"2025-08-14T10:31:49.636416","MEAN_MOTION":15.34918845,"ECCENTRICITY":0.0010887,"INCLINATION":53.1584,"RA_OF_ASC_NODE":227.8546,"ARG_OF_PERICENTER":142.7068,"MEAN_ANOMALY":217.4692,"EPHEMERIS_TYPE":0,"CLASSIFICATION_TYPE":"U","NORAD_CAT_ID":64596,"ELEMENT_SET_NO":999,"REV_AT_EPOCH":886,"BSTAR":-0.11788,"MEAN_MOTION_DOT":-0.03573253,"MEAN_MOTION_DDOT":0}]
